OBJECT_NAME,OBJECT_ID,EPOCH,MEAN_MOTION,ECCENTRICITY,INCLINATION,RA_OF_ASC_NODE,ARG_OF_PERICENTER,MEAN_ANOMALY,EPHEMERIS_TYPE,CLASSIFICATION_TYPE,NORAD_CAT_ID,ELEMENT_SET_NO,REV_AT_EPOCH,BSTAR,MEAN_MOTION_DOT,MEAN_MOTION_DDOT
BEIDOU-2 IGSO-5 (C10),2011-073A,2026-06-18T16:01:15.839616,1.00272695,.01139717,47.6748,271.5267,221.7702,105.6518,0,U,37948,999,5314,0,-.192E-5,0
LUCH 5A (SDCM/PRN 140),2011-074B,2026-06-19T14:08:01.785120,1.00270759,.000237,8.7610,73.7726,26.6341,186.3456,0,U,37951,999,5307,0,-.59E-6,0
BEIDOU-2 G5 (C05),2012-008A,2026-06-19T22:39:04.430592,1.00272661,.00090478,3.5816,69.6864,273.1123,323.7890,0,U,38091,999,5239,0,.51E-6,0
BEIDOU-2 M3 (C11),2012-018A,2026-06-19T20:57:49.167072,1.86229624,.00201421,55.7554,304.7848,273.7416,86.0206,0,U,38250,999,9599,0,-.87E-6,0
BEIDOU-2 M4 (C12),2012-018B,2026-06-19T06:27:06.904224,1.86229271,.0011331,55.6560,304.0191,275.2642,84.5989,0,U,38251,999,9598,0,-.82E-6,0
SES-5 (EGNOS/PRN 136),2012-036A,2026-06-19T09:28:43.038912,1.00271228,.00017955,0.0451,317.4240,130.6144,326.7286,0,U,38652,999,4447,0,.27E-6,0
BEIDOU-2 M6 (C14),2012-050B,2026-06-18T23:29:07.603008,1.86230903,.00136377,56.5458,62.8350,357.7339,2.3019,0,U,38775,999,9334,0,-.6E-6,0
GSAT-10 (GAGAN/PRN 128),2012-051B,2026-06-19T17:08:21.996672,1.00272197,.00078054,0.0735,261.5699,186.6317,159.8354,0,U,38779,999,5012,0,-.171E-5,0
GPS BIIF-3  (PRN 24),2012-053A,2026-06-19T07:27:03.623904,2.00567484,.01804396,53.5865,143.5123,65.7868,296.0554,0,U,38833,999,9948,0,.52E-6,0
GSAT0103 (GALILEO-FM3),2012-055A,2026-06-17T11:24:53.398656,1.70473345,.00047719,55.8068,101.5377,306.3432,53.5821,0,U,38857,999,8501,0,-.11E-6,0
BEIDOU-2 G6 (C02),2012-059A,2026-06-19T17:02:03.598368,1.00271500,.00096327,4.4288,73.4979,324.3686,209.6174,0,U,38953,999,4993,0,-.183E-5,0
LUCH 5B (SDCM/PRN 125),2012-061A,2026-06-18T21:24:08.583264,1.00272094,.0002465,10.4892,49.8655,150.1855,11.8366,0,U,38977,999,4962,0,-.148E-5,0
COSMOS 2485 (747),2013-019A,2026-06-16T21:50:24.393120,2.13103258,.00231353,65.4195,73.6140,234.1379,125.6814,0,U,39155,999,10227,0,-.2E-6,0
GPS BIIF-4  (PRN 27),2013-023A,2026-06-19T16:13:32.143872,2.00563426,.01415048,54.5020,268.8722,51.0528,310.2374,0,U,39166,999,9593,0,-.52E-6,0
IRNSS-1A,2013-034A,2026-06-18T21:29:26.733984,1.00275723,.00175894,35.7241,63.8469,183.2529,37.3106,0,U,39199,999,4738,0,.51E-6,0
GPS BIIF-5  (PRN 30),2014-008A,2026-06-19T16:15:56.118240,2.00559931,.00842201,53.6551,149.2181,231.3098,127.9099,0,U,39533,999,8973,0,.58E-6,0
ASTRA 5B (EGNOS/PRN 123),2014-011B,2026-06-19T19:49:55.082208,1.00270038,.00021264,0.0645,311.7615,112.3785,164.8818,0,U,39617,999,4469,0,.131E-5,0
COSMOS 2492 (754),2014-012A,2026-06-18T06:38:22.527168,2.13103143,.0010348,65.2971,313.8989,324.5914,35.3281,0,U,39620,999,9526,0,-.55E-6,0
IRNSS-1B,2014-017A,2026-06-19T18:16:25.595040,1.00277178,.00231505,28.9179,240.3593,189.6008,167.3236,0,U,39635,999,4481,0,.109E-5,0
LUCH 5V (SDCM/PRN 141),2014-023A,2026-06-19T18:27:34.179840,1.00273433,.00018919,5.1398,69.7202,49.9743,159.9136,0,U,39727,999,4438,0,-.276E-5,0
GPS BIIF-6  (PRN 06),2014-026A,2026-06-18T22:56:45.862368,2.00560795,.00381725,56.4974,331.4485,326.5493,33.2021,0,U,39741,999,8857,0,-.88E-6,0
COSMOS 2500 (755),2014-032A,2026-06-19T20:29:59.316864,2.13105731,.00074316,65.2308,313.5924,184.8024,175.1825,0,U,40001,999,9351,0,-.6E-6,0
GPS BIIF-7  (PRN 09),2014-045A,2026-06-19T01:08:56.458752,2.00558492,.00333924,55.3543,88.3908,118.2387,242.1042,0,U,40105,999,8611,0,-.2E-6,0
GSAT0201 (GALILEO 5),2014-050A,2026-06-19T13:44:55.894560,1.85520003,.16749227,48.8729,273.3385,179.4838,180.7636,0,U,40128,999,7836,0,-.74E-6,0
GSAT0202 (GALILEO 6),2014-050B,2026-06-19T19:52:53.439456,1.85520639,.16761882,48.8892,272.4135,180.2230,179.7415,0,U,40129,999,8053,0,-.76E-6,0
IRNSS-1C,2014-061A,2026-06-19T18:59:25.063584,1.00268918,.00226825,6.5240,88.8821,2.7462,184.1889,0,U,40269,999,4271,0,-.168E-5,0
GPS BIIF-8  (PRN 03),2014-068A,2026-06-17T22:05:35.381760,2.00576133,.00670716,56.9881,30.9264,70.6155,290.1646,0,U,40294,999,8522,0,-.79E-6,0
COSMOS 2501 (702K),2014-075A,2026-06-19T04:15:56.229696,2.13101225,.00226301,63.6164,190.3031,212.5045,147.3980,0,U,40315,999,8989,0,.57E-6,0
GPS BIIF-9  (PRN 26),2015-013A,2026-06-19T13:19:51.753504,2.00551230,.01095833,53.1677,204.0796,40.1503,320.7125,0,U,40534,999,8187,0,.33E-6,0
GSAT0203 (GALILEO 7),2015-017A,2026-06-17T19:11:07.295136,1.70476090,.0002098,56.7854,341.5787,276.4201,83.5494,0,U,40544,999,6921,0,-.91E-6,0
GSAT0204 (GALILEO 8),2015-017B,2026-06-19T05:28:49.655136,1.70475686,.0001942,56.7938,341.5583,246.6758,113.2973,0,U,40545,999,3228,0,-.94E-6,0
